[{"OBJECT_NAME":"ONEWEB-0256","OBJECT_ID":"2021-060H","EPOCH":"2026-03-09T23:17:12.273216","MEAN_MOTION":13.16593701,"ECCENTRICITY":0.00014718,"INCLINATION":87.9006,"RA_OF_ASC_NODE":248.5213,"ARG_OF_PERICENTER":92.7709,"MEAN_ANOMALY":267.359,"EPHEMERIS_TYPE":0,"CLASSIFICATION_TYPE":"U","NORAD_CAT_ID":48974,"ELEMENT_SET_NO":999,"REV_AT_EPOCH":22657,"BSTAR":-9.0699314e-5,"MEAN_MOTION_DOT":-2.2e-7,"MEAN_MOTION_DDOT":0},{"OBJECT_NAME":"DELTA 1 DEB","OBJECT_ID":"1975-052GB","EPOCH":"2026-03-09T14:19:55.494048","MEAN_MOTION":13.15301695,"ECCENTRICITY":0.0176448,"INCLINATION":99.5963,"RA_OF_ASC_NODE":289.5796,"ARG_OF_PERICENTER":1.8048,"MEAN_ANOMALY":54.92,"EPHEMERIS_TYPE":0,"CLASSIFICATION_TYPE":"U","NORAD_CAT_ID":21506,"ELEMENT_SET_NO":999,"REV_AT_EPOCH":66350,"BSTAR":0.0013498,"MEAN_MOTION_DOT":5.09e-6,"MEAN_MOTION_DDOT":0}]
